start=new Date('2022-10-17T00:00:00.000Z').valueOf();
sats=[{"MEAN_ELEMENT_THEORY":"SGP4","APOAPSIS":"466.242","ECCENTRICITY":"0.00013660","SEMIMAJOR_AXIS":"6843.442","SITE":"AFETR","CLASSIFICATION_TYPE":"U","NORAD_CAT_ID":"53038","ELEMENT_SET_NO":"999","FILE":"3617955","TLE_LINE1":"1 53038U 22076BE  22289.91667824 -.01066393  00000-0 -35360-1 0  9990","TIME_SYSTEM":"UTC","OBJECT_ID":"2022-076BE","RCS_SIZE":"LARGE","REF_FRAME":"TEME","MEAN_ANOMALY":"114.6367","MEAN_MOTION_DDOT":"0.0000000000000","COUNTRY_CODE":"US","REV_AT_EPOCH":"130","CENTER_NAME":"EARTH","EPOCH":"2022-10-16T22:00:00.999936","BSTAR":"-0.03536000000000","ARG_OF_PERICENTER":"85.7499","RA_OF_ASC_NODE":"240.5856","PERIOD":"93.901","OBJECT_NAME":"STARLINK-4156","GP_ID":"215349377","INCLINATION":"53.2176","LAUNCH_DATE":"2022-07-07","DECAY_DATE":null,"MEAN_MOTION":"15.33525150","MEAN_MOTION_DOT":"-0.01066393","EPHEMERIS_TYPE":"0","PERIAPSIS":"464.372","OBJECT_TYPE":"PAYLOAD","TLE_LINE2":"2 53038  53.2176 240.5856 0001366  85.7499 114.6367 15.33525150  1305"},{"SEMIMAJOR_AXIS":"6941.166","SITE":"AFWTR","CLASSIFICATION_TYPE":"U","NORAD_CAT_ID":"53043","ELEMENT_SET_NO":"999","TLE_LINE1":"1 53043U 22077A   22289.70873907  .00001346  00000-0  10940-3 0  9998","FILE":"3617955","MEAN_ELEMENT_THEORY":"SGP4","APOAPSIS":"564.783","ECCENTRICITY":"0.00025240","COUNTRY_CODE":"US","REV_AT_EPOCH":"1488","CENTER_NAME":"EARTH","TIME_SYSTEM":"UTC","OBJECT_ID":"2022-077A","REF_FRAME":"TEME","RCS_SIZE":"LARGE","MEAN_MOTION_DDOT":"0.0000000000000","MEAN_ANOMALY":"326.8482","PERIOD":"95.920","GP_ID":"215349960","OBJECT_NAME":"STARLINK-4362","INCLINATION":"97.6555","EPOCH":"2022-10-16T17:00:35.055648","BSTAR":"0.00010940000000","ARG_OF_PERICENTER":"33.2900","RA_OF_ASC_NODE":"109.2834","EPHEMERIS_TYPE":"0","PERIAPSIS":"561.279","OBJECT_TYPE":"PAYLOAD","TLE_LINE2":"2 53043  97.6555 109.2834 0002524  33.2900 326.8482 15.01253772 14888","LAUNCH_DATE":"2022-07-11","DECAY_DATE":null,"MEAN_MOTION":"15.01253772","MEAN_MOTION_DOT":"0.00001346"},{"SITE":"AFWTR","SEMIMAJOR_AXIS":"6941.149","CLASSIFICATION_TYPE":"U","NORAD_CAT_ID":"53044","ELEMENT_SET_NO":"999","TLE_LINE1":"1 53044U 22077B   22289.57173336 -.00000816  00000-0 -58913-4 0  9999","FILE":"3617955","MEAN_ELEMENT_THEORY":"SGP4","APOAPSIS":"564.743","ECCENTRICITY":"0.00024910","COUNTRY_CODE":"US","REV_AT_EPOCH":"1486","CENTER_NAME":"EARTH","TIME_SYSTEM":"UTC","OBJECT_ID":"2022-077B","REF_FRAME":"TEME","RCS_SIZE":"LARGE","MEAN_MOTION_DDOT":"0.0000000000000","MEAN_ANOMALY":"318.2994","PERIOD":"95.919","GP_ID":"215349210","OBJECT_NAME":"STARLINK-4349","INCLINATION":"97.6546","EPOCH":"2022-10-16T13:43:17.762304","ARG_OF_PERICENTER":"41.8420","BSTAR":"-0.00005891300000","RA_OF_ASC_NODE":"109.1459","EPHEMERIS_TYPE":"0","OBJECT_TYPE":"PAYLOAD","PERIAPSIS":"561.285","TLE_LINE2":"2 53044  97.6546 109.1459 0002491  41.8420 318.2994 15.01259366 14862","LAUNCH_DATE":"2022-07-11","DECAY_DATE":null,"MEAN_MOTION":"15.01259366","MEAN_MOTION_DOT":"-0.00000816"},{"MEAN_MOTION":"15.01253917","MEAN_MOTION_DOT":"-0.00000932","LAUNCH_DATE":"2022-07-11","DECAY_DATE":null,"TLE_LINE2":"2 53045  97.6538 109.1440 0002869  43.5372 316.6079 15.01253917 14860","EPHEMERIS_TYPE":"0","PERIAPSIS":"561.039","OBJECT_TYPE":"PAYLOAD","RA_OF_ASC_NODE":"109.1440","EPOCH":"2022-10-16T13:40:59.444544","BSTAR":"-0.00006799000000","ARG_OF_PERICENTER":"43.5372","INCLINATION":"97.6538","PERIOD":"95.920","GP_ID":"215350128","OBJECT_NAME":"STARLINK-4350","REF_FRAME":"TEME","RCS_SIZE":"LARGE","MEAN_ANOMALY":"316.6079","MEAN_MOTION_DDOT":"0.0000000000000","TIME_SYSTEM":"UTC","OBJECT_ID":"2022-077C","CENTER_NAME":"EARTH","COUNTRY_CODE":"US","REV_AT_EPOCH":"1486","APOAPSIS":"565.022","ECCENTRICITY":"0.00028690","MEAN_ELEMENT_THEORY":"SGP4","ELEMENT_SET_NO":"999","NORAD_CAT_ID":"53045","FILE":"3617955","TLE_LINE1":"1 53045U 22077C   22289.57013246 -.00000932  00000-0 -67990-4 0  9997","SITE":"AFWTR","SEMIMAJOR_AXIS":"6941.166","CLASSIFICATION_TYPE":"U"},{"SITE":"AFWTR","SEMIMAJOR_AXIS":"6941.158","CLASSIFICATION_TYPE":"U","NORAD_CAT_ID":"53046","ELEMENT_SET_NO":"999","FILE":"3617994","TLE_LINE1":"1 53046U 22077D   22289.96979991  .00001566  00000-0  12648-3 0  9990","MEAN_ELEMENT_THEORY":"SGP4","APOAPSIS":"564.714","ECCENTRICITY":"0.00024360","COUNTRY_CODE":"US","REV_AT_EPOCH":"1550","CENTER_NAME":"EARTH","TIME_SYSTEM":"UTC","OBJECT_ID":"2022-077D","REF_FRAME":"TEME","RCS_SIZE":"LARGE","MEAN_ANOMALY":"330.1170","MEAN_MOTION_DDOT":"0.0000000000000","PERIOD":"95.920","OBJECT_NAME":"STARLINK-4331","GP_ID":"215350911","INCLINATION":"97.6567","EPOCH":"2022-10-16T23:16:30.712224","BSTAR":"0.00012648000000","ARG_OF_PERICENTER":"30.0193","RA_OF_ASC_NODE":"109.5404","EPHEMERIS_TYPE":"0","PERIAPSIS":"561.333","OBJECT_TYPE":"PAYLOAD","TLE_LINE2":"2 53046  97.6567 109.5404 0002436  30.0193 330.1170 15.01256253 15500","LAUNCH_DATE":"2022-07-11","DECAY_DATE":null,"MEAN_MOTION":"15.01256253","MEAN_MOTION_DOT":"0.00001566"},{"COUNTRY_CODE":"US","REV_AT_EPOCH":"1550","CENTER_NAME":"EARTH","TIME_SYSTEM":"UTC","OBJECT_ID":"2022-077E","REF_FRAME":"TEME","RCS_SIZE":"LARGE","MEAN_ANOMALY":"345.6615","MEAN_MOTION_DDOT":"0.0000000000000","SEMIMAJOR_AXIS":"6941.030","SITE":"AFWTR","CLASSIFICATION_TYPE":"U","NORAD_CAT_ID":"53047","ELEMENT_SET_NO":"999","FILE":"3617994","TLE_LINE1":"1 53047U 22077E   22289.96792383 -.00006777  00000-0 -52296-3 0  9993","MEAN_ELEMENT_THEORY":"SGP4","ECCENTRICITY":"0.00024600","APOAPSIS":"564.603","EPHEMERIS_TYPE":"0","PERIAPSIS":"561.188","OBJECT_TYPE":"PAYLOAD","TLE_LINE2":"2 53047  97.6548 109.5367 0002460  14.4680 345.6615 15.01297825 15507","LAUNCH_DATE":"2022-07-11","DECAY_DATE":null,"MEAN_MOTION":"15.01297825","MEAN_MOTION_DOT":"-0.00006777","PERIOD":"95.917","OBJECT_NAME":"STARLINK-4352","GP_ID":"215350906","INCLINATION":"97.6548","EPOCH":"2022-10-16T23:13:48.618912","ARG_OF_PERICENTER":"14.4680","BSTAR":"-0.00052296000000","RA_OF_ASC_NODE":"109.5367"},{"TLE_LINE2":"2 53048  97.6575 109.5995 0002067  32.5627 327.5724 15.01308247 15501","EPHEMERIS_TYPE":"0","PERIAPSIS":"561.428","OBJECT_TYPE":"PAYLOAD","MEAN_MOTION":"15.01308247","MEAN_MOTION_DOT":"-0.00010713","LAUNCH_DATE":"2022-07-11","DECAY_DATE":null,"INCLINATION":"97.6575","PERIOD":"95.916","GP_ID":"215350921","OBJECT_NAME":"STARLINK-4355","RA_OF_ASC_NODE":"109.5995","EPOCH":"2022-10-17T00:50:08.746080","ARG_OF_PERICENTER":"32.5627","BSTAR":"-0.00082964000000","CENTER_NAME":"EARTH","COUNTRY_CODE":"US","REV_AT_EPOCH":"1550","REF_FRAME":"TEME","RCS_SIZE":"LARGE","MEAN_MOTION_DDOT":"0.0000000000000","MEAN_ANOMALY":"327.5724","TIME_SYSTEM":"UTC","OBJECT_ID":"2022-077F","ELEMENT_SET_NO":"999","NORAD_CAT_ID":"53048","TLE_LINE1":"1 53048U 22077F   22290.03482345 -.00010713  00000-0 -82964-3 0  9998","FILE":"3618005","SITE":"AFWTR","SEMIMAJOR_AXIS":"6940.998","CLASSIFICATION_TYPE":"U","ECCENTRICITY":"0.00020670","APOAPSIS":"564.298","MEAN_ELEMENT_THEORY":"SGP4"},{"MEAN_ELEMENT_THEORY":"SGP4","APOAPSIS":"564.517","ECCENTRICITY":"0.00021620","CLASSIFICATION_TYPE":"U","SEMIMAJOR_AXIS":"6941.151","SITE":"AFWTR","FILE":"3617955","TLE_LINE1":"1 53049U 22077G   22289.76267655  .00000922  00000-0  76401-4 0  9991","NORAD_CAT_ID":"53049","ELEMENT_SET_NO":"999","OBJECT_ID":"2022-077G","TIME_SYSTEM":"UTC","MEAN_ANOMALY":"319.5920","MEAN_MOTION_DDOT":"0.0000000000000","REF_FRAME":"TEME","RCS_SIZE":"LARGE","REV_AT_EPOCH":"1488","COUNTRY_CODE":"US","CENTER_NAME":"EARTH","ARG_OF_PERICENTER":"40.5465","BSTAR":"0.00007640100000","EPOCH":"2022-10-16T18:18:15.253920","RA_OF_ASC_NODE":"109.3279","OBJECT_NAME":"STARLINK-4345","GP_ID":"215350378","PERIOD":"95.920","INCLINATION":"97.6545","DECAY_DATE":null,"LAUNCH_DATE":"2022-07-11","MEAN_MOTION_DOT":"0.00000922","MEAN_MOTION":"15.01258664","OBJECT_TYPE":"PAYLOAD","PERIAPSIS":"561.515","EPHEMERIS_TYPE":"0","TLE_LINE2":"2 53049  97.6545 109.3279 0002162  40.5465 319.5920 15.01258664 14883"},{"CLASSIFICATION_TYPE":"U","SITE":"AFWTR","SEMIMAJOR_AXIS":"6941.126","FILE":"3618005","TLE_LINE1":"1 53050U 22077H   22289.96609474  .00003165  00000-0  25087-3 0  9999","NORAD_CAT_ID":"53050","ELEMENT_SET_NO":"999","MEAN_ELEMENT_THEORY":"SGP4","APOAPSIS":"564.562","ECCENTRICITY":"0.00022640","REV_AT_EPOCH":"1549","COUNTRY_CODE":"US","CENTER_NAME":"EARTH","OBJECT_ID":"2022-077H","TIME_SYSTEM":"UTC","MEAN_ANOMALY":"316.3649","MEAN_MOTION_DDOT":"0.0000000000000","REF_FRAME":"TEME","RCS_SIZE":"LARGE","GP_ID":"215351423","OBJECT_NAME":"STARLINK-4343","PERIOD":"95.919","INCLINATION":"97.6554","ARG_OF_PERICENTER":"43.7755","BSTAR":"0.00025087000000","EPOCH":"2022-10-16T23:11:10.585536","RA_OF_ASC_NODE":"109.5302","OBJECT_TYPE":"PAYLOAD","PERIAPSIS":"561.419","EPHEMERIS_TYPE":"0","TLE_LINE2":"2 53050  97.6554 109.5302 0002264  43.7755 316.3649 15.01266829 15497","DECAY_DATE":null,"LAUNCH_DATE":"2022-07-11","MEAN_MOTION_DOT":"0.00003165","MEAN_MOTION":"15.01266829"},{"MEAN_MOTION_DDOT":"0.0000000000000","MEAN_ANOMALY":"315.4055","RCS_SIZE":"LARGE","REF_FRAME":"TEME","OBJECT_ID":"2022-077J","TIME_SYSTEM":"UTC","CENTER_NAME":"EARTH","REV_AT_EPOCH":"1549","COUNTRY_CODE":"US","ECCENTRICITY":"0.00017970","APOAPSIS":"564.256","MEAN_ELEMENT_THEORY":"SGP4","TLE_LINE1":"1 53051U 22077J   22289.96053788  .00001520  00000-0  12292-3 0  9998","FILE":"3618005","ELEMENT_SET_NO":"999","NORAD_CAT_ID":"53051","CLASSIFICATION_TYPE":"U","SITE":"AFWTR","SEMIMAJOR_AXIS":"6941.144","MEAN_MOTION_DOT":"0.00001520","MEAN_MOTION":"15.01261021","DECAY_DATE":null,"LAUNCH_DATE":"2022-07-11","TLE_LINE2":"2 53051  97.6556 109.5238 0001797  44.7314 315.4055 15.01261021 15490","PERIAPSIS":"561.761","OBJECT_TYPE":"PAYLOAD","EPHEMERIS_TYPE":"0","RA_OF_ASC_NODE":"109.5238","BSTAR":"0.00012292000000","ARG_OF_PERICENTER":"44.7314","EPOCH":"2022-10-16T23:03:10.472832","INCLINATION":"97.6556","GP_ID":"215351421","OBJECT_NAME":"STARLINK-4336","PERIOD":"95.919"}];
